[{"OBJECT_NAME":"STARLINK-32522","OBJECT_ID":"2024-210Y","EPOCH":"2026-03-09T07:35:59.227872","MEAN_MOTION":15.27583829,"ECCENTRICITY":6.555e-5,"INCLINATION":42.9978,"RA_OF_ASC_NODE":181.8649,"ARG_OF_PERICENTER":207.0434,"MEAN_ANOMALY":153.0384,"EPHEMERIS_TYPE":0,"CLASSIFICATION_TYPE":"U","NORAD_CAT_ID":61981,"ELEMENT_SET_NO":999,"REV_AT_EPOCH":7482,"BSTAR":0.0013211828,"MEAN_MOTION_DOT":0.00036277,"MEAN_MOTION_DDOT":0},{"OBJECT_NAME":"WT 1B","OBJECT_ID":"2019-032G","EPOCH":"2026-03-09T21:42:21.881088","MEAN_MOTION":15.25021485,"ECCENTRICITY":0.0008099,"INCLINATION":44.9738,"RA_OF_ASC_NODE":242.0209,"ARG_OF_PERICENTER":49.7728,"MEAN_ANOMALY":310.3861,"EPHEMERIS_TYPE":0,"CLASSIFICATION_TYPE":"U","NORAD_CAT_ID":44316,"ELEMENT_SET_NO":999,"REV_AT_EPOCH":37191,"BSTAR":0.00065022477,"MEAN_MOTION_DOT":0.00016297,"MEAN_MOTION_DDOT":0}]
